O3B MPOWER F7           
1 62362U 24244A   26059.53491027 -.00000028  00000+0  00000+0 0  9997
2 62362   0.0693   5.4961 0006142 333.0934  21.3774  5.00115153 21099
O3B MPOWER F8           
1 62363U 24244B   26060.30146036 -.00000029  00000+0  00000+0 0  9993
2 62363   0.0532 316.9658 0006686  14.9471  28.0435  5.00115732 15475
