OBJECT_NAME,OBJECT_ID,EPOCH,MEAN_MOTION,ECCENTRICITY,INCLINATION,RA_OF_ASC_NODE,ARG_OF_PERICENTER,MEAN_ANOMALY,EPHEMERIS_TYPE,CLASSIFICATION_TYPE,NORAD_CAT_ID,ELEMENT_SET_NO,REV_AT_EPOCH,BSTAR,MEAN_MOTION_DOT,MEAN_MOTION_DDOT
O3B MPOWER F7,2024-244A,2026-02-28T12:50:16.247328,5.00115153,.00061429,0.0693,5.4961,333.0934,21.3774,0,U,62362,999,2109,0,-.28E-6,0
O3B MPOWER F8,2024-244B,2026-03-01T07:14:06.175104,5.00115732,.0006686,0.0532,316.9658,14.9471,28.0435,0,U,62363,999,1547,0,-.29E-6,0